[{"OBJECT_NAME":"MUSAT-2","OBJECT_ID":"2024-043B","EPOCH":"2026-03-09T22:04:01.255008","MEAN_MOTION":15.07177436,"ECCENTRICITY":0.0006495,"INCLINATION":97.8438,"RA_OF_ASC_NODE":205.4399,"ARG_OF_PERICENTER":314.3478,"MEAN_ANOMALY":45.7216,"EPHEMERIS_TYPE":0,"CLASSIFICATION_TYPE":"U","NORAD_CAT_ID":59099,"ELEMENT_SET_NO":999,"REV_AT_EPOCH":11013,"BSTAR":0.00067214198,"MEAN_MOTION_DOT":0.00010059,"MEAN_MOTION_DDOT":0},{"OBJECT_NAME":"STARLINK-35047","OBJECT_ID":"2025-218R","EPOCH":"2026-03-09T14:00:45.705312","MEAN_MOTION":15.05593407,"ECCENTRICITY":0.0001946,"INCLINATION":97.6012,"RA_OF_ASC_NODE":292.8474,"ARG_OF_PERICENTER":90.6511,"MEAN_ANOMALY":269.4938,"EPHEMERIS_TYPE":0,"CLASSIFICATION_TYPE":"U","NORAD_CAT_ID":65806,"ELEMENT_SET_NO":999,"REV_AT_EPOCH":2495,"BSTAR":-0.0013096,"MEAN_MOTION_DOT":-0.00018879,"MEAN_MOTION_DDOT":0}]
